ONEWEB-0130             
1 47276U 20100U   26183.43730929  .00000338  00000+0  90351-3 0  9990
2 47276  87.8957 347.6197 0001875  97.2872 262.8470 13.12442452266646
ONEWEB-0131             
1 47277U 20100V   26183.43391802  .00000306  00000+0  81438-3 0  9995
2 47277  87.8945 347.6369 0001727  98.3150 261.8175 13.12443168266682
ONEWEB-0132             
1 47278U 20100W   26183.46271130  .00000078  00000+0  18025-3 0  9998
2 47278  87.8948 347.6335 0001767  95.5090 264.6240 13.12441068266585
ONEWEB-0133             
1 47279U 20100X   26183.47951240 -.00000406  00000+0 -11650-2 0  9990
2 47279  87.8961 347.6076 0001673  97.1433 262.9886 13.12442849266741
ONEWEB-0134             
1 47280U 20100Y   26183.44916104  .00000478  00000+0  12931-2 0  9999
2 47280  87.8963 347.6109 0001860 101.9152 258.2185 13.12441594266715
ONEWEB-0135             
1 47281U 20100Z   26183.42035663 -.00000100  00000+0 -31364-3 0  9996
2 47281  87.8948 347.6375 0001765 103.7439 256.3886 13.12443867266730
ONEWEB-0136             
1 47282U 20100AA  26183.43899857  .00000363  00000+0  97406-3 0  9999
2 47282  87.8956 347.6164 0001900 103.8573 256.2767 13.12442956266664
ONEWEB-0137             
1 47283U 20100AB  26183.47287770 -.00000287  00000+0 -83344-3 0  9992
2 47283  87.8961 347.6203 0001865  89.7713 270.3629 13.12442122266572
ONEWEB-0138             
1 47284U 20100AC  26183.45086020  .00000426  00000+0  11488-2 0  9998
2 47284  87.8958 347.6298 0001898  99.8428 260.2915 13.12441266266657
ONEWEB-0139             
1 47285U 20100AD  26183.41541849 -.00000255  00000+0 -74286-3 0  9998
2 47285  87.8956 347.6232 0001883  94.9891 265.1453 13.12442886266726
ONEWEB-0140             
1 47286U 20100AE  26183.44577647  .00000448  00000+0  12086-2 0  9998
2 47286  87.8958 347.6082 0001658  95.6675 264.4642 13.12442287266693
ONEWEB-0141             
1 47287U 20100AF  26183.41513648 -.00000343  00000+0 -98779-3 0  9997
2 47287  87.8955 347.6194 0001990  87.2761 272.8595 13.12442837266676
ONEWEB-0142             
1 47288U 20100AG  26183.47980107 -.00000439  00000+0 -12548-2 0  9997
2 47288  87.8951 347.6265 0002237  92.9701 267.1684 13.12443532266673
ONEWEB-0143             
1 47289U 20100AH  26183.41358104 -.00000295  00000+0 -85547-3 0  9998
2 47289  87.8953 347.6397 0001836  93.2311 266.9028 13.12442872266649
ONEWEB-0144             
1 47290U 20100AJ  26183.46102109  .00000152  00000+0  38648-3 0  9997
2 47290  87.8961 347.6048 0002107 101.2462 258.8903 13.12441344266579
ONEWEB-0145             
1 47291U 20100AK  26183.43222176  .00000286  00000+0  75865-3 0  9992
2 47291  87.8949 347.6366 0001931  95.1237 265.0112 13.12443504266767
ONEWEB-0146             
1 47292U 20100AL  26183.42883416  .00000148  00000+0  37534-3 0  9990
2 47292  87.8959 347.6302 0001492  89.7949 270.3351 13.12443246266677
ONEWEB-0147             
1 47293U 20100AM  26183.47118545 -.00000209  00000+0 -61710-3 0  9993
2 47293  87.8958 347.6036 0001762  98.9660 261.1668 13.12442209266579
ONEWEB-0115             
1 48042U 21025A   26183.41123254 -.00000076  00000+0 -24331-3 0  9990
2 48042  87.8973 317.1934 0001823  97.9456 262.1880 13.13471862255593
ONEWEB-0152             
1 48043U 21025B   26183.65330691  .00000088  00000+0  20595-3 0  9991
2 48043  87.8977 317.1422 0001719  98.9658 261.1666 13.13469996255584
ONEWEB-0153             
1 48044U 21025C   26183.63129049 -.00000328  00000+0 -93196-3 0  9999
2 48044  87.8969 317.1482 0001974  99.2188 260.9165 13.13469081255572
ONEWEB-0154             
1 48045U 21025D   26183.62790981 -.00000291  00000+0 -83183-3 0  9992
2 48045  87.8979 317.1474 0001765 104.9917 255.1408 13.13469869255533
ONEWEB-0116             
1 48046U 21025E   26183.43833265  .00000398  00000+0  10552-2 0  9990
2 48046  87.8978 317.1823 0001787  99.8226 260.3105 13.13471826255651
ONEWEB-0150             
1 48047U 21025F   26183.41461662 -.00000255  00000+0 -73428-3 0  9993
2 48047  87.8973 317.1841 0002021  93.3500 266.7861 13.13471603255543
ONEWEB-0107             
1 48048U 21025G   26183.41631070  .00000009  00000+0 -10227-4 0  9991
2 48048  87.8978 317.1803 0002126  99.6059 260.5311 13.13470562255524
ONEWEB-0101             
1 48049U 21025H   26183.60761075  .00000849  00000+0  22895-2 0  9995
2 48049  87.8965 317.1560 0001917 104.7007 255.4335 13.13466306255529
ONEWEB-0113             
1 48050U 21025J   26183.62699161 -.00000275  00000+0 -78443-3 0  9991
2 48050  87.8974 317.0611 0001851  94.7306 265.4035 13.13891953255634
ONEWEB-0112             
1 48051U 21025K   26183.64991931 -.00000066  00000+0 -21592-3 0  9995
2 48051  87.8974 317.1318 0002054 105.2045 254.9311 13.13469888255621
ONEWEB-0156             
1 48052U 21025L   26183.65840039  .00000204  00000+0  52446-3 0  9993
2 48052  87.8981 317.1399 0001957  97.3998 262.7354 13.13471241255606
ONEWEB-0161             
1 48053U 21025M   26183.63298049 -.00000234  00000+0 -67660-3 0  9999
2 48053  87.8978 317.1466 0002051  97.8263 262.3099 13.13469328255531
