OBJECT_NAME,OBJECT_ID,EPOCH,MEAN_MOTION,ECCENTRICITY,INCLINATION,RA_OF_ASC_NODE,ARG_OF_PERICENTER,MEAN_ANOMALY,EPHEMERIS_TYPE,CLASSIFICATION_TYPE,NORAD_CAT_ID,ELEMENT_SET_NO,REV_AT_EPOCH,BSTAR,MEAN_MOTION_DOT,MEAN_MOTION_DDOT
ONEWEB-0130,2020-100U,2026-07-02T10:29:43.522656,13.12442452,.00018757,87.8957,347.6197,97.2872,262.8470,0,U,47276,999,26664,.90351222E-3,.338E-5,0
ONEWEB-0131,2020-100V,2026-07-02T10:24:50.516928,13.12443168,.00017278,87.8945,347.6369,98.3150,261.8175,0,U,47277,999,26668,.81438003E-3,.306E-5,0
ONEWEB-0132,2020-100W,2026-07-02T11:06:18.256320,13.12441068,.00017676,87.8948,347.6335,95.5090,264.6240,0,U,47278,999,26658,.18024691E-3,.78E-6,0
ONEWEB-0133,2020-100X,2026-07-02T11:30:29.871360,13.12442849,.00016736,87.8961,347.6076,97.1433,262.9886,0,U,47279,999,26674,-.11649552E-2,-.406E-5,0
ONEWEB-0134,2020-100Y,2026-07-02T10:46:47.513856,13.12441594,.00018605,87.8963,347.6109,101.9152,258.2185,0,U,47280,999,26671,.1293112E-2,.478E-5,0
ONEWEB-0135,2020-100Z,2026-07-02T10:05:18.812832,13.12443867,.0001765,87.8948,347.6375,103.7439,256.3886,0,U,47281,999,26673,-.31364414E-3,-.1E-5,0
ONEWEB-0136,2020-100AA,2026-07-02T10:32:09.476448,13.12442956,.00019,87.8956,347.6164,103.8573,256.2767,0,U,47282,999,26666,.97406051E-3,.363E-5,0
ONEWEB-0137,2020-100AB,2026-07-02T11:20:56.633280,13.12442122,.00018651,87.8961,347.6203,89.7713,270.3629,0,U,47283,999,26657,-.83344432E-3,-.287E-5,0
ONEWEB-0138,2020-100AC,2026-07-02T10:49:14.321280,13.12441266,.00018989,87.8958,347.6298,99.8428,260.2915,0,U,47284,999,26665,.11487592E-2,.426E-5,0
ONEWEB-0139,2020-100AD,2026-07-02T09:58:12.157536,13.12442886,.00018834,87.8956,347.6232,94.9891,265.1453,0,U,47285,999,26672,-.74285502E-3,-.255E-5,0
ONEWEB-0140,2020-100AE,2026-07-02T10:41:55.087008,13.12442287,.00016582,87.8958,347.6082,95.6675,264.4642,0,U,47286,999,26669,.12085649E-2,.448E-5,0
ONEWEB-0141,2020-100AF,2026-07-02T09:57:47.791872,13.12442837,.00019904,87.8955,347.6194,87.2761,272.8595,0,U,47287,999,26667,-.98779438E-3,-.343E-5,0
ONEWEB-0142,2020-100AG,2026-07-02T11:30:54.812448,13.12443532,.00022372,87.8951,347.6265,92.9701,267.1684,0,U,47288,999,26667,-.12547863E-2,-.439E-5,0
ONEWEB-0143,2020-100AH,2026-07-02T09:55:33.401856,13.12442872,.00018369,87.8953,347.6397,93.2311,266.9028,0,U,47289,999,26664,-.85547468E-3,-.295E-5,0
ONEWEB-0144,2020-100AJ,2026-07-02T11:03:52.222176,13.12441344,.00021074,87.8961,347.6048,101.2462,258.8903,0,U,47290,999,26657,.38647537E-3,.152E-5,0
ONEWEB-0145,2020-100AK,2026-07-02T10:22:23.960064,13.12443504,.0001931,87.8949,347.6366,95.1237,265.0112,0,U,47291,999,26676,.75864726E-3,.286E-5,0
ONEWEB-0146,2020-100AL,2026-07-02T10:17:31.271424,13.12443246,.00014924,87.8959,347.6302,89.7949,270.3351,0,U,47292,999,26667,.37534014E-3,.148E-5,0
ONEWEB-0147,2020-100AM,2026-07-02T11:18:30.422880,13.12442209,.00017629,87.8958,347.6036,98.9660,261.1668,0,U,47293,999,26657,-.61709628E-3,-.209E-5,0
ONEWEB-0115,2021-025A,2026-07-02T09:52:10.491456,13.13471862,.00018231,87.8973,317.1934,97.9456,262.1880,0,U,48042,999,25559,-.24330599E-3,-.76E-6,0
ONEWEB-0152,2021-025B,2026-07-02T15:40:45.717024,13.13469996,.00017194,87.8977,317.1422,98.9658,261.1666,0,U,48043,999,25558,.20594611E-3,.88E-6,0
ONEWEB-0153,2021-025C,2026-07-02T15:09:03.498336,13.13469081,.00019745,87.8969,317.1482,99.2188,260.9165,0,U,48044,999,25557,-.93196121E-3,-.328E-5,0
ONEWEB-0154,2021-025D,2026-07-02T15:04:11.407584,13.13469869,.00017656,87.8979,317.1474,104.9917,255.1408,0,U,48045,999,25553,-.83183231E-3,-.291E-5,0
ONEWEB-0116,2021-025E,2026-07-02T10:31:11.940960,13.13471826,.00017878,87.8978,317.1823,99.8226,260.3105,0,U,48046,999,25565,.10552067E-2,.398E-5,0
ONEWEB-0150,2021-025F,2026-07-02T09:57:02.875968,13.13471603,.0002021,87.8973,317.1841,93.3500,266.7861,0,U,48047,999,25554,-.73427574E-3,-.255E-5,0
ONEWEB-0107,2021-025G,2026-07-02T09:59:29.244480,13.13470562,.0002126,87.8978,317.1803,99.6059,260.5311,0,U,48048,999,25552,-.10227346E-4,.9E-7,0
ONEWEB-0101,2021-025H,2026-07-02T14:34:57.568800,13.13466306,.00019173,87.8965,317.1560,104.7007,255.4335,0,U,48049,999,25552,.22895017E-2,.849E-5,0
ONEWEB-0113,2021-025J,2026-07-02T15:02:52.075104,13.13891953,.00018517,87.8974,317.0611,94.7306,265.4035,0,U,48050,999,25563,-.78442572E-3,-.275E-5,0
ONEWEB-0112,2021-025K,2026-07-02T15:35:53.028384,13.13469888,.00020542,87.8974,317.1318,105.2045,254.9311,0,U,48051,999,25562,-.21592236E-3,-.66E-6,0
ONEWEB-0156,2021-025L,2026-07-02T15:48:05.793696,13.13471241,.00019579,87.8981,317.1399,97.3998,262.7354,0,U,48052,999,25560,.52446399E-3,.204E-5,0
ONEWEB-0161,2021-025M,2026-07-02T15:11:29.514336,13.13469328,.00020511,87.8978,317.1466,97.8263,262.3099,0,U,48053,999,25553,-.67660386E-3,-.234E-5,0
